IRIDIUM 106             
1 41917U 17003A   24106.94372942  .00000067  00000+0  16923-4 0  9993
2 41917  86.3967  59.5954 0002221  76.2693 283.8750 14.34218052379653
IRIDIUM 103             
1 41918U 17003B   24107.41942283  .00000148  00000+0  45943-4 0  9992
2 41918  86.3969  59.2982 0002593  86.9989 273.1503 14.34216684379749
IRIDIUM 109             
1 41919U 17003C   24107.56530369  .00000077  00000+0  20266-4 0  9999
2 41919  86.3970  59.2838 0002329  93.1970 266.9492 14.34218079379735
IRIDIUM 102             
1 41920U 17003D   24107.88242979  .00000589  00000+0  20324-3 0  9995
2 41920  86.3968  59.0920 0002258  87.8645 272.2809 14.34221401379863
IRIDIUM 105             
1 41921U 17003E   24107.50428705  .00000668  00000+0  23143-3 0  9998
2 41921  86.4021  27.6803 0002195  84.5213 275.6233 14.34217958381662
IRIDIUM 104             
1 41922U 17003F   24107.40673989 -.00000467  00000+0 -17375-3 0  9993
2 41922  86.3970  59.3214 0002229  87.2117 272.9334 14.34216229379786
IRIDIUM 114             
1 41923U 17003G   24107.41308066  .00000168  00000+0  52779-4 0  9990
2 41923  86.3968  59.3045 0002133  80.4047 279.7390 14.34218622379761
IRIDIUM 108             
1 41924U 17003H   24107.85997995  .00000851  00000+0  29669-3 0  9994
2 41924  86.4017  27.4605 0002213  79.3436 280.8009 14.34220406381704
